{
  "type": "FeatureCollection",
  "features": [
    {
      "type": "Feature",
      "properties": {
        "norad_id": 67096,
        "name": "STARLINK-36228",
        "group": "last-30-days",
        "lat": -61.83951483692537,
        "lon": 74.2231895624484,
        "alt_km": 344.3605050007918,
        "timestamp": "2025-12-26T07:29:17.196655+00:00",
        "meta_object_name": "STARLINK-36228",
        "meta_object_id": "2025-298X",
        "meta_epoch": "2025-12-25T22:00:01.999584",
        "meta_mean_motion": 15.7813377,
        "meta_eccentricity": 0.00034732,
        "meta_inclination": 69.9961,
        "meta_ra_of_asc_node": 212.4584,
        "meta_arg_of_pericenter": 275.2928,
        "meta_mean_anomaly": 250.2931,
        "meta_ephemeris_type": 0,
        "meta_classification_type": "U",
        "meta_norad_cat_id": 67096,
        "meta_element_set_no": 999,
        "meta_rev_at_epoch": 303,
        "meta_bstar": -0.011208644,
        "meta_mean_motion_dot": -0.01700183,
        "meta_mean_motion_ddot": 0,
        "tle_line1": "1 67096U 25298X   25359.91668981 -.01700183  00000+0 -11209-1 0  9991",
        "tle_line2": "2 67096  69.9961 212.4584 0003473 275.2928 250.2931 15.78133770  3038"
      },
      "geometry": {
        "type": "Point",
        "coordinates": [
          74.2231895624484,
          -61.83951483692537
        ]
      }
    },
    {
      "type": "Feature",
      "properties": {
        "norad_id": 67097,
        "name": "STARLINK-36222",
        "group": "last-30-days",
        "lat": -63.168954636928774,
        "lon": 77.40802804348124,
        "alt_km": 344.2567407953575,
        "timestamp": "2025-12-26T07:29:17.196669+00:00",
        "meta_object_name": "STARLINK-36222",
        "meta_object_id": "2025-298Y",
        "meta_epoch": "2025-12-25T22:00:01.999584",
        "meta_mean_motion": 15.78137242,
        "meta_eccentricity": 0.00036319,
        "meta_inclination": 69.9959,
        "meta_ra_of_asc_node": 212.4557,
        "meta_arg_of_pericenter": 275.4,
        "meta_mean_anomaly": 252.1726,
        "meta_ephemeris_type": 0,
        "meta_classification_type": "U",
        "meta_norad_cat_id": 67097,
        "meta_element_set_no": 999,
        "meta_rev_at_epoch": 303,
        "meta_bstar": -0.011261086,
        "meta_mean_motion_dot": -0.01707623,
        "meta_mean_motion_ddot": 0,
        "tle_line1": "1 67097U 25298Y   25359.91668981 -.01707623  00000+0 -11261-1 0  9996",
        "tle_line2": "2 67097  69.9959 212.4557 0003631 275.4000 252.1726 15.78137242  3036"
      },
      "geometry": {
        "type": "Point",
        "coordinates": [
          77.40802804348124,
          -63.168954636928774
        ]
      }
    },
    {
      "type": "Feature",
      "properties": {
        "norad_id": 67098,
        "name": "STARLINK-36205",
        "group": "last-30-days",
        "lat": -64.5028102851253,
        "lon": 81.13987158939834,
        "alt_km": 344.22779160213213,
        "timestamp": "2025-12-26T07:29:17.196680+00:00",
        "meta_object_name": "STARLINK-36205",
        "meta_object_id": "2025-298Z",
        "meta_epoch": "2025-12-25T22:00:01.999584",
        "meta_mean_motion": 15.78126895,
        "meta_eccentricity": 0.0003675,
        "meta_inclination": 69.9958,
        "meta_ra_of_asc_node": 212.4532,
        "meta_arg_of_pericenter": 274.6877,
        "meta_mean_anomaly": 255.0207,
        "meta_ephemeris_type": 0,
        "meta_classification_type": "U",
        "meta_norad_cat_id": 67098,
        "meta_element_set_no": 999,
        "meta_rev_at_epoch": 309,
        "meta_bstar": -0.011261945,
        "meta_mean_motion_dot": -0.01707075,
        "meta_mean_motion_ddot": 0,
        "tle_line1": "1 67098U 25298Z   25359.91668981 -.01707075  00000+0 -11262-1 0  9999",
        "tle_line2": "2 67098  69.9958 212.4532 0003675 274.6877 255.0207 15.78126895  3094"
      },
      "geometry": {
        "type": "Point",
        "coordinates": [
          81.13987158939834,
          -64.5028102851253
        ]
      }
    },
    {
      "type": "Feature",
      "properties": {
        "norad_id": 67099,
        "name": "STARLINK-36193",
        "group": "last-30-days",
        "lat": -58.17987103806858,
        "lon": 67.29160734790666,
        "alt_km": 353.63312738952754,
        "timestamp": "2025-12-26T07:29:17.196690+00:00",
        "meta_object_name": "STARLINK-36193",
        "meta_object_id": "2025-298AA",
        "meta_epoch": "2025-12-25T22:00:01.999584",
        "meta_mean_motion": 15.75514284,
        "meta_eccentricity": 0.0003351,
        "meta_inclination": 69.997,
        "meta_ra_of_asc_node": 212.4594,
        "meta_arg_of_pericenter": 273.3494,
        "meta_mean_anomaly": 251.3645,
        "meta_ephemeris_type": 0,
        "meta_classification_type": "U",
        "meta_norad_cat_id": 67099,
        "meta_element_set_no": 999,
        "meta_rev_at_epoch": 303,
        "meta_bstar": -0.018090093,
        "meta_mean_motion_dot": -0.02379642,
        "meta_mean_motion_ddot": 0,
        "tle_line1": "1 67099U 25298AA  25359.91668981 -.02379642  00000+0 -18090-1 0  9992",
        "tle_line2": "2 67099  69.9970 212.4594 0003351 273.3494 251.3645 15.75514284  3038"
      },
      "geometry": {
        "type": "Point",
        "coordinates": [
          67.29160734790666,
          -58.17987103806858
        ]
      }
    },
    {
      "type": "Feature",
      "properties": {
        "norad_id": 67100,
        "name": "STARLINK-36215",
        "group": "last-30-days",
        "lat": -67.43651490835803,
        "lon": 92.58204866770814,
        "alt_km": 344.20301338451645,
        "timestamp": "2025-12-26T07:29:17.196702+00:00",
        "meta_object_name": "STARLINK-36215",
        "meta_object_id": "2025-298AB",
        "meta_epoch": "2025-12-25T22:00:01.999584",
        "meta_mean_motion": 15.78136996,
        "meta_eccentricity": 0.00036438,
        "meta_inclination": 69.9957,
        "meta_ra_of_asc_node": 212.4465,
        "meta_arg_of_pericenter": 276.4793,
        "meta_mean_anomaly": 258.7202,
        "meta_ephemeris_type": 0,
        "meta_classification_type": "U",
        "meta_norad_cat_id": 67100,
        "meta_element_set_no": 999,
        "meta_rev_at_epoch": 309,
        "meta_bstar": -0.011252794,
        "meta_mean_motion_dot": -0.01706505,
        "meta_mean_motion_ddot": 0,
        "tle_line1": "1 67100U 25298AB  25359.91668981 -.01706505  00000+0 -11253-1 0  9990",
        "tle_line2": "2 67100  69.9957 212.4465 0003643 276.4793 258.7202 15.78136996  3092"
      },
      "geometry": {
        "type": "Point",
        "coordinates": [
          92.58204866770814,
          -67.43651490835803
        ]
      }
    },
    {
      "type": "Feature",
      "properties": {
        "norad_id": 67101,
        "name": "STARLINK-36200",
        "group": "last-30-days",
        "lat": -65.54840533495147,
        "lon": 84.57368207537866,
        "alt_km": 344.2416892347919,
        "timestamp": "2025-12-26T07:29:17.196712+00:00",
        "meta_object_name": "STARLINK-36200",
        "meta_object_id": "2025-298AC",
        "meta_epoch": "2025-12-25T22:00:01.999584",
        "meta_mean_motion": 15.78128214,
        "meta_eccentricity": 0.00035494,
        "meta_inclination": 69.9961,
        "meta_ra_of_asc_node": 212.4515,
        "meta_arg_of_pericenter": 271.7259,
        "meta_mean_anomaly": 259.765,
        "meta_ephemeris_type": 0,
        "meta_classification_type": "U",
        "meta_norad_cat_id": 67101,
        "meta_element_set_no": 999,
        "meta_rev_at_epoch": 309,
        "meta_bstar": -0.011222937,
        "meta_mean_motion_dot": -0.017018,
        "meta_mean_motion_ddot": 0,
        "tle_line1": "1 67101U 25298AC  25359.91668981 -.01701800  00000+0 -11223-1 0  9991",
        "tle_line2": "2 67101  69.9961 212.4515 0003549 271.7259 259.7650 15.78128214  3096"
      },
      "geometry": {
        "type": "Point",
        "coordinates": [
          84.57368207537866,
          -65.54840533495147
        ]
      }
    },
    {
      "type": "Feature",
      "properties": {
        "norad_id": 67102,
        "name": "STARLINK-36255",
        "group": "last-30-days",
        "lat": 21.22968755717636,
        "lon": 28.854754511993754,
        "alt_km": 328.9467105796075,
        "timestamp": "2025-12-26T07:29:17.196722+00:00",
        "meta_object_name": "STARLINK-36255",
        "meta_object_id": "2025-299A",
        "meta_epoch": "2025-12-25T22:00:01.999584",
        "meta_mean_motion": 15.81187562,
        "meta_eccentricity": 0.00015779,
        "meta_inclination": 42.9965,
        "meta_ra_of_asc_node": 235.9144,
        "meta_arg_of_pericenter": 276.6478,
        "meta_mean_anomaly": 139.3358,
        "meta_ephemeris_type": 0,
        "meta_classification_type": "U",
        "meta_norad_cat_id": 67102,
        "meta_element_set_no": 999,
        "meta_rev_at_epoch": 292,
        "meta_bstar": -0.01018137,
        "meta_mean_motion_dot": -0.01812749,
        "meta_mean_motion_ddot": 0,
        "tle_line1": "1 67102U 25299A   25359.91668981 -.01812749  00000+0 -10181-1 0  9990",
        "tle_line2": "2 67102  42.9965 235.9144 0001577 276.6478 139.3358 15.81187562  2920"
      },
      "geometry": {
        "type": "Point",
        "coordinates": [
          28.854754511993754,
          21.22968755717636
        ]
      }
    }
  ]
}